IRIDIUM 159             
1 43578U 18061K   25079.50155490  .00000059  00000+0  14037-4 0  9997
2 43578  86.3931 246.2432 0002226  97.4173 262.7275 14.34217990348359
IRIDIUM 180             
1 43922U 19002A   25079.22197769  .00000125  00000+0  37688-4 0  9991
2 43922  86.4049 183.3127 0002315  98.3567 261.7891 14.34217732323924
IRIDIUM 168             
1 43924U 19002C   25079.35516909  .00000942  00000+0  32929-3 0  9997
2 43924  86.4050 183.3205 0002197  98.2216 261.9229 14.34222266323928
IRIDIUM 169             
1 43926U 19002E   25079.40103215  .00001303  00000+0  41912-3 0  9991
2 43926  86.4261 214.7777 0003003  63.7095 296.4411 14.38634492324981
IRIDIUM 172             
1 43927U 19002F   25079.33615176  .00001122  00000+0  39380-3 0  9993
2 43927  86.4049 183.2426 0002390  98.3569 261.7898 14.34202514323913
IRIDIUM 175             
1 43928U 19002G   25079.53731565  .00000366  00000+0  54142-4 0  9990
2 43928  86.1522 140.7721 0001506  72.6993 287.4389 14.72233928332495
